STARLINK-31420          
1 59223U 24046Y   26068.47667750  .00000258  00000+0  20839-4 0  9991
2 59223  53.1591 156.5581 0001393  29.2244 330.8835 15.30182009113001
STARLINK-36554          
1 67502U 26012K   26067.71268370  .00032833  00000+0  11969-2 0  9992
2 67502  42.9934 319.8184 0000695 339.2059  20.8765 15.27591469  7619
